AURA                    
1 28376U 04026A   26182.91275735  .00000836  00000+0  17890-3 0  9990
2 28376  98.3423 139.4886 0001178  86.2101 273.9234 14.61351324168365
CAPELLA-11 (ACADIA-1)   
1 57693U 23126A   26182.85868485  .00005554  00000+0  68322-3 0  9997
2 57693  53.0050 121.2313 0002425 136.2523 223.8648 14.84281434154308
CAPELLA-14 (ACADIA-4)   
1 59444U 24066C   26182.26838817  .00020545  00000+0  12739-2 0  9995
2 59444  45.6018 180.9831 0001002 106.5712 253.5283 15.09501367114615
CAPELLA-13 (ACADIA-3)   
1 60419U 24142A   26182.74477614  .00005440  00000+0  61745-3 0  9990
2 60419  53.0045 354.0224 0001421  93.6265 266.4877 14.87653682102573
CAPELLA-15 (ACADIA-5)   
1 60544U 24149CE  26182.93891189  .00004988  00000+0  49231-3 0  9996
2 60544  97.6768 255.4737 0003816  32.7851 327.3605 14.92404833102053
BIOMASS                 
1 63772U 25090A   26182.76332000  .00001080  00000+0  20136-3 0  9994
2 63772  98.0745   9.8640 0001206  90.1056 270.0287 14.66988860 62827
CAPELLA-17 (ACADIA-7)   
1 64583U 25135BH  26182.89673048  .00007396  00000+0  74412-3 0  9991
2 64583  97.7705 296.3009 0003960 308.7779  51.3085 14.91485752 56044
CAPELLA-16 (ACADIA-6)   
1 65318U 25188D   26182.62499522  .00008455  00000+0  79960-3 0  9990
2 65318  97.7385 257.5602 0004829 168.8725 191.2603 14.93908912 46076
CAPELLA-19 (ACADIA-9)   
1 67384U 26004X   26182.46797632  .00006481  00000+0  73569-3 0  9994
2 67384  97.7978 180.5834 0001298  82.2313 277.9051 14.86641529 25391
CAPELLA-18 (ACADIA-8)   
1 67385U 26004Y   26182.88185177  .00001607  00000+0  18700-3 0  9997
2 67385  97.7997 181.1420 0001632  97.0012 263.1389 14.86651125 25465
