{
 "generated_at": "2026-07-02T08:12:02Z",
 "sources": [
  {
   "name": "CelesTrak",
   "url": "https://celestrak.org/NORAD/elements/",
   "license": "frei verfügbar; Attribution. Ursprünglich USSPACECOM/Space-Track."
  },
  {
   "name": "GCAT (J. McDowell, planet4589.org)",
   "url": "https://planet4589.org/space/gcat/",
   "license": "CC-BY 4.0"
  }
 ],
 "satellites": [
  {
   "norad": 28376,
   "name": "AURA",
   "intl": "2004-026A",
   "group": "resource",
   "gcat": {
    "class": "C",
    "category": "EOSCI",
    "owner": "GSFC",
    "state": "US"
   },
   "omm": {
    "OBJECT_NAME": "AURA",
    "OBJECT_ID": "2004-026A",
    "EPOCH": "2026-07-01T21:54:22.235040",
    "MEAN_MOTION": 14.61351324,
    "ECCENTRICITY": 0.00011781,
    "INCLINATION": 98.3423,
    "RA_OF_ASC_NODE": 139.4886,
    "ARG_OF_PERICENTER": 86.2101,
    "MEAN_ANOMALY": 273.9234,
    "EPHEMERIS_TYPE": 0,
    "CLASSIFICATION_TYPE": "U",
    "NORAD_CAT_ID": 28376,
    "ELEMENT_SET_NO": 999,
    "REV_AT_EPOCH": 16836,
    "BSTAR": 0.0001788977,
    "MEAN_MOTION_DOT": 0.00000836,
    "MEAN_MOTION_DDOT": 0
   }
  },
  {
   "norad": 63772,
   "name": "BIOMASS",
   "intl": "2025-090A",
   "group": "resource",
   "gcat": {
    "class": "C",
    "category": "EOSCI",
    "owner": "ESA",
    "state": "I-ESA"
   },
   "omm": {
    "OBJECT_NAME": "BIOMASS",
    "OBJECT_ID": "2025-090A",
    "EPOCH": "2026-07-01T18:19:10.848000",
    "MEAN_MOTION": 14.6698886,
    "ECCENTRICITY": 0.0001206,
    "INCLINATION": 98.0745,
    "RA_OF_ASC_NODE": 9.864,
    "ARG_OF_PERICENTER": 90.1056,
    "MEAN_ANOMALY": 270.0287,
    "EPHEMERIS_TYPE": 0,
    "CLASSIFICATION_TYPE": "U",
    "NORAD_CAT_ID": 63772,
    "ELEMENT_SET_NO": 999,
    "REV_AT_EPOCH": 6282,
    "BSTAR": 0.00020136072,
    "MEAN_MOTION_DOT": 0.0000108,
    "MEAN_MOTION_DDOT": 0
   }
  },
  {
   "norad": 57693,
   "name": "CAPELLA-11 (ACADIA-1)",
   "intl": "2023-126A",
   "group": "sar",
   "gcat": {
    "class": "B",
    "category": "IMG-R",
    "owner": "CAPSP",
    "state": "US"
   },
   "omm": {
    "OBJECT_NAME": "CAPELLA-11 (ACADIA-1)",
    "OBJECT_ID": "2023-126A",
    "EPOCH": "2026-07-01T20:36:30.371040",
    "MEAN_MOTION": 14.84281434,
    "ECCENTRICITY": 0.00024254,
    "INCLINATION": 53.005,
    "RA_OF_ASC_NODE": 121.2313,
    "ARG_OF_PERICENTER": 136.2523,
    "MEAN_ANOMALY": 223.8648,
    "EPHEMERIS_TYPE": 0,
    "CLASSIFICATION_TYPE": "U",
    "NORAD_CAT_ID": 57693,
    "ELEMENT_SET_NO": 999,
    "REV_AT_EPOCH": 15430,
    "BSTAR": 0.00068321785,
    "MEAN_MOTION_DOT": 0.00005554,
    "MEAN_MOTION_DDOT": 0
   }
  },
  {
   "norad": 60419,
   "name": "CAPELLA-13 (ACADIA-3)",
   "intl": "2024-142A",
   "group": "sar",
   "gcat": {
    "class": "B",
    "category": "IMG-R",
    "owner": "CAPSP",
    "state": "US"
   },
   "omm": {
    "OBJECT_NAME": "CAPELLA-13 (ACADIA-3)",
    "OBJECT_ID": "2024-142A",
    "EPOCH": "2026-07-01T17:52:28.658496",
    "MEAN_MOTION": 14.87653682,
    "ECCENTRICITY": 0.00014211,
    "INCLINATION": 53.0045,
    "RA_OF_ASC_NODE": 354.0224,
    "ARG_OF_PERICENTER": 93.6265,
    "MEAN_ANOMALY": 266.4877,
    "EPHEMERIS_TYPE": 0,
    "CLASSIFICATION_TYPE": "U",
    "NORAD_CAT_ID": 60419,
    "ELEMENT_SET_NO": 999,
    "REV_AT_EPOCH": 10257,
    "BSTAR": 0.00061744963,
    "MEAN_MOTION_DOT": 0.0000544,
    "MEAN_MOTION_DDOT": 0
   }
  },
  {
   "norad": 59444,
   "name": "CAPELLA-14 (ACADIA-4)",
   "intl": "2024-066C",
   "group": "sar",
   "gcat": {
    "class": "B",
    "category": "IMG-R",
    "owner": "CAPSP",
    "state": "US"
   },
   "omm": {
    "OBJECT_NAME": "CAPELLA-14 (ACADIA-4)",
    "OBJECT_ID": "2024-066C",
    "EPOCH": "2026-07-01T06:26:28.737888",
    "MEAN_MOTION": 15.09501367,
    "ECCENTRICITY": 0.0001002,
    "INCLINATION": 45.6018,
    "RA_OF_ASC_NODE": 180.9831,
    "ARG_OF_PERICENTER": 106.5712,
    "MEAN_ANOMALY": 253.5283,
    "EPHEMERIS_TYPE": 0,
    "CLASSIFICATION_TYPE": "U",
    "NORAD_CAT_ID": 59444,
    "ELEMENT_SET_NO": 999,
    "REV_AT_EPOCH": 11461,
    "BSTAR": 0.0012739,
    "MEAN_MOTION_DOT": 0.00020545,
    "MEAN_MOTION_DDOT": 0
   }
  },
  {
   "norad": 60544,
   "name": "CAPELLA-15 (ACADIA-5)",
   "intl": "2024-149CE",
   "group": "sar",
   "gcat": {
    "class": "B",
    "category": "IMG-R",
    "owner": "CAPSP",
    "state": "US"
   },
   "omm": {
    "OBJECT_NAME": "CAPELLA-15 (ACADIA-5)",
    "OBJECT_ID": "2024-149CE",
    "EPOCH": "2026-07-01T22:32:01.987296",
    "MEAN_MOTION": 14.92404833,
    "ECCENTRICITY": 0.00038165,
    "INCLINATION": 97.6768,
    "RA_OF_ASC_NODE": 255.4737,
    "ARG_OF_PERICENTER": 32.7851,
    "MEAN_ANOMALY": 327.3605,
    "EPHEMERIS_TYPE": 0,
    "CLASSIFICATION_TYPE": "U",
    "NORAD_CAT_ID": 60544,
    "ELEMENT_SET_NO": 999,
    "REV_AT_EPOCH": 10205,
    "BSTAR": 0.00049230581,
    "MEAN_MOTION_DOT": 0.00004988,
    "MEAN_MOTION_DDOT": 0
   }
  },
  {
   "norad": 65318,
   "name": "CAPELLA-16 (ACADIA-6)",
   "intl": "2025-188D",
   "group": "sar",
   "gcat": {
    "class": "B",
    "category": "IMG-R",
    "owner": "CAPSP",
    "state": "US"
   },
   "omm": {
    "OBJECT_NAME": "CAPELLA-16 (ACADIA-6)",
    "OBJECT_ID": "2025-188D",
    "EPOCH": "2026-07-01T14:59:59.587008",
    "MEAN_MOTION": 14.93908912,
    "ECCENTRICITY": 0.00048295,
    "INCLINATION": 97.7385,
    "RA_OF_ASC_NODE": 257.5602,
    "ARG_OF_PERICENTER": 168.8725,
    "MEAN_ANOMALY": 191.2603,
    "EPHEMERIS_TYPE": 0,
    "CLASSIFICATION_TYPE": "U",
    "NORAD_CAT_ID": 65318,
    "ELEMENT_SET_NO": 999,
    "REV_AT_EPOCH": 4607,
    "BSTAR": 0.00079959986,
    "MEAN_MOTION_DOT": 0.00008455,
    "MEAN_MOTION_DDOT": 0
   }
  },
  {
   "norad": 64583,
   "name": "CAPELLA-17 (ACADIA-7)",
   "intl": "2025-135BH",
   "group": "sar",
   "gcat": {
    "class": "B",
    "category": "IMG-R",
    "owner": "CAPSP",
    "state": "US"
   },
   "omm": {
    "OBJECT_NAME": "CAPELLA-17 (ACADIA-7)",
    "OBJECT_ID": "2025-135BH",
    "EPOCH": "2026-07-01T21:31:17.513472",
    "MEAN_MOTION": 14.91485752,
    "ECCENTRICITY": 0.00039608,
    "INCLINATION": 97.7705,
    "RA_OF_ASC_NODE": 296.3009,
    "ARG_OF_PERICENTER": 308.7779,
    "MEAN_ANOMALY": 51.3085,
    "EPHEMERIS_TYPE": 0,
    "CLASSIFICATION_TYPE": "U",
    "NORAD_CAT_ID": 64583,
    "ELEMENT_SET_NO": 999,
    "REV_AT_EPOCH": 5604,
    "BSTAR": 0.0007441207,
    "MEAN_MOTION_DOT": 0.00007396,
    "MEAN_MOTION_DDOT": 0
   }
  },
  {
   "norad": 67385,
   "name": "CAPELLA-18 (ACADIA-8)",
   "intl": "2026-004Y",
   "group": "sar",
   "gcat": {
    "class": "B",
    "category": "IMG-R",
    "owner": "CAPSP",
    "state": "US"
   },
   "omm": {
    "OBJECT_NAME": "CAPELLA-18 (ACADIA-8)",
    "OBJECT_ID": "2026-004Y",
    "EPOCH": "2026-07-01T21:09:51.992928",
    "MEAN_MOTION": 14.86651125,
    "ECCENTRICITY": 0.00016321,
    "INCLINATION": 97.7997,
    "RA_OF_ASC_NODE": 181.142,
    "ARG_OF_PERICENTER": 97.0012,
    "MEAN_ANOMALY": 263.1389,
    "EPHEMERIS_TYPE": 0,
    "CLASSIFICATION_TYPE": "U",
    "NORAD_CAT_ID": 67385,
    "ELEMENT_SET_NO": 999,
    "REV_AT_EPOCH": 2546,
    "BSTAR": 0.00018699779,
    "MEAN_MOTION_DOT": 0.00001607,
    "MEAN_MOTION_DDOT": 0
   }
  },
  {
   "norad": 67384,
   "name": "CAPELLA-19 (ACADIA-9)",
   "intl": "2026-004X",
   "group": "sar",
   "gcat": {
    "class": "B",
    "category": "IMG-R",
    "owner": "CAPSP",
    "state": "US"
   },
   "omm": {
    "OBJECT_NAME": "CAPELLA-19 (ACADIA-9)",
    "OBJECT_ID": "2026-004X",
    "EPOCH": "2026-07-01T11:13:53.154048",
    "MEAN_MOTION": 14.86641529,
    "ECCENTRICITY": 0.00012982,
    "INCLINATION": 97.7978,
    "RA_OF_ASC_NODE": 180.5834,
    "ARG_OF_PERICENTER": 82.2313,
    "MEAN_ANOMALY": 277.9051,
    "EPHEMERIS_TYPE": 0,
    "CLASSIFICATION_TYPE": "U",
    "NORAD_CAT_ID": 67384,
    "ELEMENT_SET_NO": 999,
    "REV_AT_EPOCH": 2539,
    "BSTAR": 0.00073569019,
    "MEAN_MOTION_DOT": 0.00006481,
    "MEAN_MOTION_DDOT": 0
   }
  }
 ]
}
